0 COSMOS 1275 DEB
1 12675U 81053AF  13284.08232749  .00000538  00000-0  52959-3 0  6144
2 12675 082.9352 114.3580 0068534 314.0520 168.4939 13.76131262610846
0 COSMOS 1275 DEB
1 12675U 81053AF  13286.54016902  .00000486  00000-0  47662-3 0  6156
2 12675 082.9351 112.5319 0068474 307.0504 104.9581 13.76133817611186
0 COSMOS 1275 DEB
1 12675U 81053AF  13289.02612572  .00000563  00000-0  55436-3 0  6162
2 12675 082.9353 110.6847 0068448 299.9885 180.7142 13.76137306611525
0 COSMOS 1275 DEB
1 12675U 81053AF  13291.06483056  .00000556  00000-0  54734-3 0  6175
2 12675 082.9357 109.1699 0068414 294.1785 200.7669 13.76139401611802
0 COSMOS 1275 DEB
1 12675U 81053AF  13293.52037267  .00000634  00000-0  62686-3 0  6180
2 12675 082.9359 107.3456 0068475 287.1903 125.9067 13.76141917612149
0 COSMOS 1275 DEB
1 12675U 81053AF  13296.00499128  .00000669  00000-0  66186-3 0  6192
2 12675 082.9359 105.4997 0068596 280.1396 195.0986 13.76144794612482
